TRANSIT 16 [?]          
1 02807U 67048A   16274.15813363  .00000071  00000-0  94503-4 0  9995
2 02807  89.6290 114.4412 0022158 108.2974  10.6739 13.50129040429746
TRANSIT 17 [?]          
1 02965U 67092A   16273.11422397  .00000092  00000-0  12033-3 0  9997
2 02965  89.2370 279.6985 0045804 272.6118 156.0210 13.52851738416826
TRANSIT 18 [?]          
1 03133U 68012A   16274.49067672  .00000063  00000-0  80776-4 0  9999
2 03133  89.9536 276.2540 0075581 179.7087 292.4509 13.50958946391940
NNSS 19 [?]             
1 04507U 70067A   16274.52405035  .00000078  00000-0  98960-4 0  9991
2 04507  89.8245 267.1408 0170582 302.4802 171.3577 13.50623830268978
NNSS O-20 [?]           
1 06909U 73081A   16274.17906442  .00000079  00000-0  69060-4 0  9997
2 06909  89.8318 317.2710 0159302  64.2998 297.4516 13.70408404343546
TRANSAT [?]             
1 10457U 77106A   16273.80874595  .00000047  00000-0  59870-4 0  9997
2 10457  89.7711 178.0865 0025608 157.3164 267.3020 13.48552986914640
NOVA I [?]              
1 12458U 81044A   16274.51946459  .00000056  00000-0  11210-3 0  9999
2 12458  89.9626 122.4219 0014600  14.7931  42.6162 13.22949322707810
NOVA 3 [?]              
1 15362U 84110A   16272.91277741  .00000050  00000-0  98786-4 0  9994
2 15362  90.0399  53.7668 0030434 232.3614 239.2223 13.22719122542531
OSCAR 30 [?]            
1 15935U 85066A   16273.86918529  .00000057  00000-0  88703-4 0  9997
2 15935  90.1270  46.9622 0168443 202.3810 268.7333 13.35599341515933
OSCAR 24 [?]            
1 15936U 85066B   16273.50171759  .00000039  00000-0  55331-4 0  9996
2 15936  90.1158  41.0670 0169131 207.6180 196.0656 13.35480819517988
POLAR BEAR [?]          
1 17070U 86088A   16274.16231138  .00000073  00000-0  64854-4 0  9991
2 17070  89.5457 339.6476 0039392 167.5888 221.4335 13.74710270498308
OSCAR 27 [?]            
1 18361U 87080A   16274.16506249  .00000069  00000-0  99693-4 0  9990
2 18361  90.3390 326.8523 0106603 124.2312 236.8991 13.44414591424234
OSCAR 29 [?]            
1 18362U 87080B   16272.77701759  .00000059  00000-0  83166-4 0  9996
2 18362  90.3397 327.0242 0107800 143.9579 353.2659 13.44008332423726
OSCAR 23 [?]            
1 19070U 88033A   16274.52638086  .00000060  00000-0  10304-3 0  9994
2 19070  90.3535 264.3519 0190979 161.6897 312.5217 13.27391848376987
OSCAR 32 [?]            
1 19071U 88033B   16274.57789800  .00000001  00000-0 -16829-4 0  9996
2 19071  90.3534 264.4309 0189344 151.1673 325.9251 13.27578991377203
NOVA 11 [?]             
1 19223U 88052A   16273.06943900  .00000055  00000-0  11085-3 0  9998
2 19223  89.9599  87.9031 0028704 276.9037 199.5132 13.22635754365340
OSCAR 25 [?]            
1 19419U 88074A   16272.87323112  .00000022  00000-0  20001-4 0  9997
2 19419  89.9865  19.4016 0098328 112.9788   2.9994 13.42146308375402
OSCAR 31 [?]            
1 19420U 88074B   16274.45920888  .00000035  00000-0  43057-4 0  9998
2 19420  89.9872  19.4019 0096554 102.8666 303.3018 13.42160949375993
